OBJECT_NAME,OBJECT_ID,EPOCH,MEAN_MOTION,ECCENTRICITY,INCLINATION,RA_OF_ASC_NODE,ARG_OF_PERICENTER,MEAN_ANOMALY,EPHEMERIS_TYPE,CLASSIFICATION_TYPE,NORAD_CAT_ID,ELEMENT_SET_NO,REV_AT_EPOCH,BSTAR,MEAN_MOTION_DOT,MEAN_MOTION_DDOT
GEN1A-2,2026-100AB,2026-07-04T16:00:15.978240,15.20429856,.00041092,97.4010,83.1568,336.7859,23.3190,0,U,69005,999,947,.29340414E-3,.6333E-4,0
JEN-1,2026-100AC,2026-07-05T04:46:10.595136,15.20394751,.00027343,97.4023,83.6822,330.4636,29.6444,0,U,69006,999,954,.38534353E-3,.8331E-4,0
BRO-21,2026-100AD,2026-07-04T16:26:12.107904,15.21585231,.00079881,97.4021,83.2927,7.5610,352.5745,0,U,69007,999,946,.17416899E-3,.3862E-4,0
YAM-14,2026-100AE,2026-07-04T22:51:31.866624,14.90328739,.0006673,97.7330,82.9845,63.9137,296.2767,0,U,69008,999,933,.22173975E-3,.2102E-4,0
CAS500-2 RIDESHARE OBJECT AF,2026-100AF,2026-07-04T16:19:00.208992,15.20587625,.00025835,97.4015,83.1472,286.1681,73.9270,0,U,69009,999,946,.9061365E-3,.19823E-3,0
DRISHTI,2026-100AG,2026-07-05T04:28:46.129728,15.20544646,.00045321,97.4017,83.6871,345.2933,14.8170,0,U,69010,999,954,.18336182E-3,.3944E-4,0
EYCORE-1,2026-100AH,2026-07-05T04:20:54.500640,15.20809576,.0003948,97.4024,83.7043,355.9402,4.1801,0,U,69011,999,954,.32968961E-3,.7205E-4,0
JACKAL-004,2026-100AJ,2026-07-05T05:51:58.291488,15.20779735,.0007301,97.3967,83.7525,353.3893,6.7245,0,U,69012,999,955,.28510109E-3,.6218E-4,0
CAS500-2,2026-100AK,2026-07-05T05:56:32.877600,15.20821614,.00085672,97.3877,83.7643,332.8073,27.2713,0,U,69013,999,955,.49931019E-3,.10964E-3,0
CAS500-2 RIDESHARE OBJECT AL,2026-100AL,2026-07-05T03:48:28.725120,15.21325313,.00060715,97.4041,83.7519,12.5821,347.5566,0,U,69014,999,954,.32113725E-3,.7125E-4,0
FRONTIERSAT,2026-100AM,2026-07-05T04:59:19.480704,15.22007137,.00075783,97.3977,83.7719,354.5396,5.5756,0,U,69015,999,956,.69453676E-3,.15824E-3,0
RAVEN,2026-100AN,2026-07-04T22:50:58.884288,15.21458864,.00077984,97.4011,83.5338,1.6814,358.4447,0,U,69016,999,951,.1729754E-3,.382E-4,0
PELICAN-7,2026-100AP,2026-07-04T03:50:21.679296,15.23290733,.00037255,97.3885,82.7769,101.7869,258.3786,0,U,69017,999,939,.24031198E-3,.563E-4,0
EDDA-1,2026-100AQ,2026-07-04T16:38:36.144096,15.23188400,.00028594,97.3924,83.2728,127.0367,233.1132,0,U,69018,999,948,.32374142E-3,.7587E-4,0
PELICAN-9,2026-100AR,2026-07-04T06:10:24.869856,15.21556067,.00035413,97.3833,82.7406,12.4318,347.7005,0,U,69019,999,940,.43745222E-3,.9797E-4,0
SELENE,2026-100AS,2026-07-04T22:50:01.695264,15.20077235,.00022004,97.4017,83.3945,288.1900,71.9096,0,U,69020,999,950,.52178563E-3,.11205E-3,0
HELIOS,2026-100AT,2026-07-05T03:27:00.673056,15.20267935,.00028155,97.4000,83.5791,295.0397,65.0546,0,U,69021,999,953,.58532619E-3,.1265E-3,0
HYDRA-3,2026-100AU,2026-07-04T16:26:08.172384,15.20122725,.00031422,97.4003,83.1242,304.2793,55.8144,0,U,69022,999,946,.43354603E-3,.9309E-4,0
QUBE-II,2026-100AV,2026-07-04T16:12:04.804704,15.20496217,.00015802,97.4046,83.1820,332.6596,27.4556,0,U,69023,999,946,.58816653E-3,.12796E-3,0
BALKAN-2,2026-100AW,2026-07-04T16:16:23.908800,15.20270796,.00018515,97.4046,83.1770,327.2306,32.8814,0,U,69024,999,946,.40063676E-3,.8633E-4,0
STARLINK-37592,2026-101A,2026-07-05T00:47:14.619840,15.33481250,.00005439,97.2844,40.5645,120.4743,239.6553,0,U,69025,999,930,.14257359E-2,.46288E-3,0
STARLINK-37637,2026-101B,2026-07-04T20:52:21.595296,15.33478129,.00012878,97.2874,40.4793,103.0703,257.0684,0,U,69026,999,928,.10208052E-2,.33059E-3,0
STARLINK-37548,2026-101C,2026-07-05T00:23:44.648736,15.33498597,.00015931,97.2838,40.5859,303.2466,56.8624,0,U,69027,999,930,.10990733E-2,.35635E-3,0
STARLINK-37634,2026-101D,2026-07-05T04:18:40.480416,15.33471753,.00018042,97.2848,40.8240,102.3225,257.8220,0,U,69028,999,933,.64434199E-3,.20802E-3,0
STARLINK-37635,2026-101E,2026-07-05T00:35:30.207552,15.33487182,.00014234,97.2845,40.5776,110.5619,249.5777,0,U,69029,999,930,.12843387E-2,.41673E-3,0
STARLINK-37615,2026-101F,2026-07-04T21:04:04.658880,15.33469529,.0000841,97.2861,40.4712,97.9443,262.1895,0,U,69030,999,928,.17523554E-2,.56969E-3,0
STARLINK-37240,2026-101G,2026-07-04T20:40:35.045472,15.33464332,.00009761,97.2849,40.4913,105.2759,254.8592,0,U,69031,999,928,.97849553E-3,.31666E-3,0
STARLINK-37596,2026-101H,2026-07-04T20:17:06.557856,15.33443109,.00009783,97.2835,40.5090,78.0478,282.0874,0,U,69032,999,928,.14661197E-2,.47553E-3,0
STARLINK-37591,2026-101J,2026-07-05T00:19:51.090528,15.33486648,.00029239,97.2842,40.5900,91.7254,268.4323,0,U,69033,999,930,.12049493E-2,.39082E-3,0
STARLINK-37611,2026-101K,2026-07-05T00:31:35.919264,15.33488075,.00027857,97.2860,40.5820,85.5701,274.5860,0,U,69034,999,930,.12305955E-2,.39921E-3,0
STARLINK-37512,2026-101L,2026-07-05T01:06:49.437792,15.33470748,.00009662,97.2838,40.6941,102.0937,258.0414,0,U,69035,999,931,.10350314E-2,.33515E-3,0
STARLINK-37609,2026-101M,2026-07-04T20:48:25.009632,15.33473324,.00023847,97.2842,40.4814,94.5752,265.5764,0,U,69036,999,928,.97519129E-3,.31569E-3,0
STARLINK-37608,2026-101N,2026-07-05T01:18:34.033248,15.33476354,.00011027,97.2854,40.6871,111.7798,248.3562,0,U,69037,999,931,.12123958E-2,.39308E-3,0
STARLINK-37466,2026-101P,2026-07-05T00:51:09.498240,15.33487430,.00005195,97.2836,40.7095,228.7633,131.3566,0,U,69038,999,931,.17632701E-2,.5736E-3,0
STARLINK-37612,2026-101Q,2026-07-05T00:39:25.153344,15.33485242,.00013406,97.2845,40.5726,92.1320,268.0076,0,U,69039,999,930,.15468042E-2,.50259E-3,0
STARLINK-37616,2026-101R,2026-07-05T00:43:19.487424,15.33500024,.00004335,97.2848,40.5695,256.2815,103.8380,0,U,69040,999,930,.15960472E-2,.51896E-3,0
STARLINK-37614,2026-101S,2026-07-05T00:27:39.608352,15.33499759,.0001518,97.2828,40.5821,291.7579,68.3502,0,U,69041,999,930,.10876461E-2,.35263E-3,0
STARLINK-37644,2026-101T,2026-07-04T21:00:09.713088,15.33494124,.00030915,97.2850,40.4725,97.9599,262.1994,0,U,69042,999,928,.12183821E-2,.3953E-3,0
STARLINK-37571,2026-101U,2026-07-05T03:23:51.870912,15.33461781,.00019625,97.2857,40.7230,95.5137,264.6330,0,U,69043,999,932,.72838315E-3,.23526E-3,0
STARLINK-37664,2026-101V,2026-07-05T03:12:07.159680,15.33466712,.00021589,97.2848,40.7329,96.6313,263.5175,0,U,69044,999,932,.78480312E-3,.25365E-3,0
STARLINK-37667,2026-101W,2026-07-04T20:44:30.038784,15.33455880,.00022411,97.2852,40.4896,95.5387,264.6112,0,U,69045,999,928,.11505429E-2,.37267E-3,0
STARLINK-37666,2026-101X,2026-07-05T01:02:54.482496,15.33467116,.00009184,97.2836,40.7034,99.2660,260.8686,0,U,69046,999,931,.11195227E-2,.36266E-3,0
STARLINK-37576,2026-101Y,2026-07-05T00:55:04.577952,15.33472009,.00008118,97.2823,40.7111,102.9621,257.1713,0,U,69047,999,931,.10727054E-2,.34745E-3,0
STARLINK-37663,2026-101Z,2026-07-05T01:14:39.454656,15.33447482,.00016451,97.2846,40.6917,89.1460,270.9971,0,U,69048,999,931,.10848389E-2,.35114E-3,0
TIANZHOU-10,2026-102A,2026-07-05T05:10:03.903744,15.57977003,.00028885,41.4675,212.3196,272.5684,87.4823,0,U,69049,999,29581,.22739435E-3,.17226E-3,0
QIANFAN-127,2026-104A,2026-07-04T03:45:06.495552,13.71597009,.00092174,88.9886,339.7621,29.3382,330.8297,0,U,69073,999,743,.2977376E-4,.4E-6,0
QIANFAN-128,2026-104B,2026-07-03T21:38:43.737504,13.65457214,.00088734,88.9869,339.8172,62.1209,298.0849,0,U,69074,999,738,-.24791563E+1,-.1877738E-1,0
QIANFAN-129,2026-104C,2026-07-04T03:17:36.935520,13.73478428,.00090033,88.9879,339.7411,38.6502,321.5305,0,U,69075,999,744,.28287459E-4,.39E-6,0
QIANFAN-130,2026-104D,2026-07-03T17:21:59.316480,13.68039043,.00138347,88.9879,339.8275,51.2758,308.9638,0,U,69076,999,736,-.24312497E+1,-.1938279E-1,0
QIANFAN-131,2026-104E,2026-07-03T22:50:18.399840,13.71098943,.00084055,88.9867,339.7865,39.9867,320.1913,0,U,69077,999,740,.33984954E-4,.43E-6,0
QIANFAN-132,2026-104F,2026-07-03T17:17:15.699840,13.63833110,.00078661,88.9879,339.8461,29.1462,331.0134,0,U,69078,999,735,-.25743069E+1,-.1897788E-1,0
QIANFAN-133,2026-104G,2026-07-03T18:18:17.596224,13.69932245,.00117131,88.9872,339.8155,35.0160,325.1770,0,U,69079,999,737,-.25132494E+1,-.2057957E-1,0
QIANFAN-134,2026-104H,2026-07-03T17:51:36.371808,13.66733716,.00113928,88.9881,339.8292,52.0798,308.1391,0,U,69080,999,736,-.24311846E+1,-.1880025E-1,0
QIANFAN-135,2026-104J,2026-07-04T03:35:15.289728,13.69867144,.00086422,88.9875,339.7810,37.3992,322.7770,0,U,69081,999,742,.35900405E-4,.44E-6,0
QIANFAN-136,2026-104K,2026-07-04T03:44:26.222784,13.67752034,.00113023,88.9875,339.7799,37.1195,323.0745,0,U,69082,999,742,.308776E-4,.39E-6,0
QIANFAN-137,2026-104L,2026-07-04T03:58:08.435424,13.83521945,.00093594,88.9884,339.6878,39.9631,320.2226,0,U,69083,999,747,.33960021E-4,.51E-6,0
QIANFAN-138,2026-104M,2026-07-04T03:35:55.824288,13.66537228,.00090801,88.9869,339.7802,36.5815,323.5964,0,U,69084,999,742,.33698065E-4,.41E-6,0
QIANFAN-139,2026-104N,2026-07-04T04:14:41.143776,13.69560152,.0008042,88.9880,339.7637,38.6025,321.5710,0,U,69085,999,743,.3406752E-4,.42E-6,0
QIANFAN-140,2026-104P,2026-07-04T00:32:09.420864,13.70487052,.00081458,88.9877,339.7827,35.7097,324.4608,0,U,69086,999,741,.32553724E-4,.42E-6,0
QIANFAN-141,2026-104Q,2026-07-03T21:40:39.496224,13.72725803,.00082758,88.9882,339.7799,30.0333,330.1304,0,U,69087,999,740,-.22124936E+1,-.1885995E-1,0
QIANFAN-142,2026-104R,2026-07-03T20:57:44.350272,13.73928316,.00111125,88.9876,339.7745,18.4828,341.6737,0,U,69088,999,740,-.2145159E+1,-.186697E-1,0
QIANFAN-143,2026-104S,2026-07-04T03:56:30.032736,13.73191408,.00096696,88.9888,339.7457,28.8420,331.3277,0,U,69089,999,744,.28200767E-4,.39E-6,0
QIANFAN-144,2026-104T,2026-07-03T21:21:57.932640,13.69488064,.0007941,88.9876,339.7776,66.2372,293.9622,0,U,69090,999,740,-.23726302E+1,-.1936084E-1,0
ZHUQUE-2E R/B,2026-105A,2026-07-05T02:50:09.024000,15.21037511,.04328189,88.9689,191.8070,229.5622,126.7127,0,U,69095,999,787,.35911762E-3,.154472E-2,-.644652E-6
2026-106A,2026-106A,2026-07-05T06:54:56.477952,15.11441314,.00157843,97.5090,268.0498,104.5171,255.7812,0,U,69097,999,771,.65530825E-3,.11055E-3,0
